NORAD_CAT_ID,OBJECT_NAME,OBJECT_TYPE,EPOCH,MEAN_MOTION,ECCENTRICITY,INCLINATION,RA_OF_ASC_NODE,ARG_OF_PERICENTER,MEAN_ANOMALY,BSTAR,MEAN_MOTION_DOT,MEAN_MOTION_DDOT,TLE_LINE0,TLE_LINE1,TLE_LINE2,SEMIMAJOR_AXIS,PERIOD,APOGEE,PERIGEE,DECAYED
55634.0,STARLINK-5500,PAYLOAD,2023-08-11 06:46:56,14.98324106,0.0003351,70.0001,58.1128,268.2725,91.805,4.4196e-05,4.34e-06,0.0,0 STARLINK-5500,1 55634U 23021G   23223.28259574  .00000434  00000-0  44196-4 0  9994,2 55634  70.0001  58.1128 0003351 268.2725  91.8050 14.98324106 26988,6950.211,96.107,574.405,569.747,0.0
55634.0,STARLINK-5500,PAYLOAD,2023-08-12 19:38:01,14.98334196,0.0003191,70.0001,54.2419,268.1243,91.9551,3.4762e-05,3.22e-06,0.0,0 STARLINK-5500,1 55634U 23021G   23224.81807139  .00000322  00000-0  34762-4 0  9994,2 55634  70.0001  54.2419 0003191 268.1243  91.9551 14.98334196 27218,6950.18,96.107,574.263,569.827,0.0
55634.0,STARLINK-5500,PAYLOAD,2023-08-13 22:52:18,14.9833273,0.0003203,70.0002,51.3807,267.4769,92.6024,6.2875e-05,6.57e-06,0.0,0 STARLINK-5500,1 55634U 23021G   23225.95299006  .00000657  00000-0  62875-4 0  9995,2 55634  70.0002  51.3807 0003203 267.4769  92.6024 14.98332730 27380,6950.184,96.107,574.276,569.823,0.0
55634.0,STARLINK-5500,PAYLOAD,2023-08-14 22:54:19,14.98330898,0.0003094,70.0007,48.8558,269.0295,91.051,-3.0903e-05,-4.62e-06,0.0,0 STARLINK-5500,1 55634U 23021G   23226.95439344 -.00000462  00000-0 -30903-4 0  9990,2 55634  70.0007  48.8558 0003094 269.0295  91.0510 14.98330898 27532,6950.19,96.107,574.206,569.905,0.0
55634.0,STARLINK-5500,PAYLOAD,2023-08-15 22:56:20,14.98332736,0.0003096,70.0007,46.331,268.5436,91.5369,8.7624e-06,1.2e-07,0.0,0 STARLINK-5500,1 55634U 23021G   23227.95579002  .00000012  00000-0  87624-5 0  9999,2 55634  70.0007  46.3310 0003096 268.5436  91.5369 14.98332736 27680,6950.184,96.107,574.201,569.898,0.0
55634.0,STARLINK-5500,PAYLOAD,2023-08-17 11:47:25,14.98330318,0.0003118,69.9968,42.4586,269.2302,90.85,-3.9988e-06,-1.41e-06,0.0,0 STARLINK-5500,1 55634U 23021G   23229.49127109 -.00000141  00000-0 -39988-5 0  9992,2 55634  69.9968  42.4586 0003118 269.2302  90.8500 14.98330318 27919,6950.192,96.107,574.224,569.89,0.0
55634.0,STARLINK-5500,PAYLOAD,2023-08-18 10:13:19,14.98322074,0.0003143,69.9979,40.1023,269.8179,90.262,-7.0798e-05,-9.38e-06,0.0,0 STARLINK-5500,1 55634U 23021G   23230.42591935 -.00000938  00000-0 -70798-4 0  9996,2 55634  69.9979  40.1023 0003143 269.8179  90.2620 14.98322074 28051,6950.217,96.108,574.267,569.898,0.0
55634.0,STARLINK-5500,PAYLOAD,2023-08-19 10:15:20,14.98327483,0.0003038,70.0001,37.5771,270.5057,89.5754,-4.0454e-06,-1.41e-06,0.0,0 STARLINK-5500,1 55634U 23021G   23231.42731822 -.00000141  00000-0 -40454-5 0  9991,2 55634  70.0001  37.5771 0003038 270.5057  89.5754 14.98327483 28202,6950.201,96.107,574.177,569.954,0.0
55634.0,STARLINK-5500,PAYLOAD,2023-08-20 11:53:28,14.98331782,0.0003169,69.9998,34.8841,268.2429,91.8367,0.00014713,1.663e-05,0.0,0 STARLINK-5500,1 55634U 23021G   23232.49547092  .00001663  00000-0  14713-3 0  9998,2 55634  69.9998  34.8841 0003169 268.2429  91.8367 14.98331782 28364,6950.187,96.107,574.255,569.85,0.0
55634.0,STARLINK-5500,PAYLOAD,2023-08-21 11:55:29,14.98332222,0.0003251,70.0017,32.3617,269.7436,90.335,2.1292e-05,1.61e-06,0.0,0 STARLINK-5500,1 55634U 23021G   23233.49687244  .00000161  00000-0  21292-4 0  9996,2 55634  70.0017  32.3617 0003251 269.7436  90.3350 14.98332222 28512,6950.186,96.107,574.311,569.792,0.0
55634.0,STARLINK-5500,PAYLOAD,2023-08-22 11:57:30,14.98334838,0.0003147,70.0016,29.8361,264.7748,95.3052,-4.9192e-05,-6.8e-06,0.0,0 STARLINK-5500,1 55634U 23021G   23234.49827006 -.00000680  00000-0 -49192-4 0  9996,2 55634  70.0016  29.8361 0003147 264.7748  95.3052 14.98334838 28668,6950.178,96.107,574.23,569.856,0.0
55634.0,STARLINK-5500,PAYLOAD,2023-08-23 11:59:31,14.98328884,0.0003265,70.0014,27.311,265.344,94.7346,3.3465e-05,3.06e-06,0.0,0 STARLINK-5500,1 55634U 23021G   23235.49966960  .00000306  00000-0  33465-4 0  9999,2 55634  70.0014  27.3110 0003265 265.3440  94.7346 14.98328884 28818,6950.196,96.107,574.331,569.792,0.0
55634.0,STARLINK-5500,PAYLOAD,2023-08-24 12:01:32,14.98330305,0.0003276,70.0017,24.7856,265.4334,94.6451,1.1265e-05,4.1e-07,0.0,0 STARLINK-5500,1 55634U 23021G   23236.50106911  .00000041  00000-0  11265-4 0  9994,2 55634  70.0017  24.7856 0003276 265.4334  94.6451 14.98330305 28967,6950.192,96.107,574.334,569.78,0.0
55634.0,STARLINK-5500,PAYLOAD,2023-08-25 13:39:41,14.98330386,0.0003259,70.0018,22.0927,266.3467,93.7319,8.048e-06,3e-08,0.0,0 STARLINK-5500,1 55634U 23021G   23237.56922845  .00000003  00000-0  80480-5 0  9997,2 55634  70.0018  22.0927 0003259 266.3467  93.7319 14.98330386 29420,6950.192,96.107,574.322,569.792,0.0
55634.0,STARLINK-5500,PAYLOAD,2023-08-25 20:04:13,14.98333152,0.0003221,70.0018,21.4192,265.8207,94.2584,4.0039e-05,3.85e-06,0.0,0 STARLINK-5500,1 55634U 23021G   23237.83626550  .00000385  00000-0  40039-4 0  9999,2 55634  70.0018  21.4192 0003221 265.8207  94.2584 14.98333152 29167,6950.183,96.107,574.287,569.809,0.0
55634.0,STARLINK-5500,PAYLOAD,2023-08-26 12:05:34,14.98323117,0.0003437,70.0015,19.7352,269.2972,90.7793,9.3997e-05,1.029e-05,0.0,0 STARLINK-5500,1 55634U 23021G   23238.50386927  .00001029  00000-0  93997-4 0  9992,2 55634  70.0015  19.7352 0003437 269.2972  90.7793 14.98323117 29565,6950.214,96.107,574.468,569.69,0.0
55634.0,STARLINK-5500,PAYLOAD,2023-08-26 18:30:06,14.98331847,0.0003305,70.0013,19.0621,269.9796,90.0984,2.522e-05,2.08e-06,0.0,0 STARLINK-5500,1 55634U 23021G   23238.77090634  .00000208  00000-0  25220-4 0  9990,2 55634  70.0013  19.0621 0003305 269.9796  90.0984 14.98331847 29609,6950.187,96.107,574.349,569.755,0.0
55634.0,STARLINK-5500,PAYLOAD,2023-08-27 08:55:20,14.98311325,0.0002495,70.0027,17.5481,257.2798,102.8082,-0.00014426,-1.813e-05,0.0,0 STARLINK-5500,1 55634U 23021G   23239.37176899 -.00001813  00000-0 -14426-3 0  9995,2 55634  70.0027  17.5481 0002495 257.2798 102.8082 14.98311325 29398,6950.251,96.108,573.85,570.382,0.0
55634.0,STARLINK-5500,PAYLOAD,2023-08-27 18:32:09,14.98314655,0.0002995,70.0027,16.5386,260.2366,99.8455,-9.8338e-05,-1.266e-05,0.0,0 STARLINK-5500,1 55634U 23021G   23239.77233138 -.00001266  00000-0 -98338-4 0  9996,2 55634  70.0027  16.5386 0002995 260.2366  99.8455 14.98314655 29759,6950.24,96.108,574.187,570.024,0.0
55634.0,STARLINK-5500,PAYLOAD,2023-08-28 02:32:49,14.98324693,0.0003385,70.0017,15.6954,270.1443,89.9328,-1.8249e-05,-3.11e-06,0.0,0 STARLINK-5500,1 55634U 23021G   23240.10612316 -.00000311  00000-0 -18249-4 0  9997,2 55634  70.0017  15.6954 0003385 270.1443  89.9328 14.98324693 29504,6950.209,96.107,574.427,569.722,0.0
55634.0,STARLINK-5500,PAYLOAD,2023-08-28 15:21:53,14.98331671,0.0003499,70.0013,14.3496,269.9706,90.1052,7.8447e-05,8.43e-06,0.0,0 STARLINK-5500,1 55634U 23021G   23240.64019710  .00000843  00000-0  78447-4 0  9999,2 55634  70.0013  14.3496 0003499 269.9706  90.1052 14.98331671 29581,6950.188,96.107,574.485,569.621,0.0
55634.0,STARLINK-5500,PAYLOAD,2023-08-28 16:58:00,14.9833319,0.0003447,70.0014,14.1812,270.1001,89.9763,9.6182e-05,1.055e-05,0.0,0 STARLINK-5500,1 55634U 23021G   23240.70695576  .00001055  00000-0  96182-4 0  9998,2 55634  70.0014  14.1812 0003447 270.1001  89.9763 14.98333190 29894,6950.183,96.107,574.444,569.652,0.0
55634.0,STARLINK-5500,PAYLOAD,2023-08-29 17:00:01,14.98334267,0.0003882,70.0014,11.6564,271.6004,88.4711,0.00042829,5.022e-05,0.0,0 STARLINK-5500,1 55634U 23021G   23241.70834577  .00005022  00000-0  42829-3 0  9991,2 55634  70.0014  11.6564 0003882 271.6004  88.4711 14.98334267 29749,6950.18,96.107,574.743,569.347,0.0
55634.0,STARLINK-5500,PAYLOAD,2023-08-29 20:12:16,14.98339758,0.0003474,70.0015,11.32,269.0234,91.0527,0.00041546,4.869e-05,0.0,0 STARLINK-5500,1 55634U 23021G   23241.84186209  .00004869  00000-0  41546-3 0  9991,2 55634  70.0015  11.3200 0003474 269.0234  91.0527 14.98339758 30069,6950.163,96.106,574.442,569.613,0.0
55634.0,STARLINK-5500,PAYLOAD,2023-08-30 15:25:54,14.98340119,0.0003505,70.0015,9.3002,268.4143,91.6614,-1.4827e-05,-2.7e-06,0.0,0 STARLINK-5500,1 55634U 23021G   23242.64298833 -.00000270  00000-0 -14827-4 0  9994,2 55634  70.0015   9.3002 0003505 268.4143  91.6614 14.98340119 29887,6950.162,96.106,574.463,569.591,0.0
55634.0,STARLINK-5500,PAYLOAD,2023-09-01 01:04:42,14.98365192,0.0003551,70.0025,5.7684,264.3509,95.7245,-0.00055455,-6.71e-05,0.0,0 STARLINK-5500,1 55634U 23021G   23244.04493478 -.00006710  00000-0 -55455-3 0  9998,2 55634  70.0025   5.7684 0003551 264.3509  95.7245 14.98365192 30094,6950.084,96.105,574.417,569.481,0.0
55634.0,STARLINK-5500,PAYLOAD,2023-09-01 18:42:11,14.98343441,0.0003289,70.002,3.9165,258.5621,101.5169,-0.0001601,-2.003e-05,0.0,0 STARLINK-5500,1 55634U 23021G   23244.77929793 -.00002003  00000-0 -16010-3 0  9997,2 55634  70.0020   3.9165 0003289 258.5621 101.5169 14.98343441 30208,6950.151,96.106,574.302,569.73,0.0
55634.0,STARLINK-5500,PAYLOAD,2023-09-02 01:06:41,14.98351842,0.0002783,70.0012,3.2434,262.3308,97.7535,0.00090253,0.00010698,0.0,0 STARLINK-5500,1 55634U 23021G   23245.04631193  .00010698  00000-0  90253-3 0  9990,2 55634  70.0012   3.2434 0002783 262.3308  97.7535 14.98351842 30245,6950.125,96.106,573.925,570.056,0.0
55634.0,STARLINK-5500,PAYLOAD,2023-09-02 07:31:16,14.98331029,0.0003349,70.001,2.567,267.033,93.0445,-4.5545e-05,-6.36e-06,0.0,0 STARLINK-5500,1 55634U 23021G   23245.31338436 -.00000636  00000-0 -45545-4 0  9992,2 55634  70.0010   2.5670 0003349 267.0330  93.0445 14.98331029 30281,6950.19,96.107,574.382,569.727,0.0
55634.0,STARLINK-5500,PAYLOAD,2023-09-02 12:19:40,14.98328341,0.0003196,70.0015,2.0618,271.6418,88.4375,-6.9618e-06,-1.76e-06,0.0,0 STARLINK-5500,1 55634U 23021G   23245.51366499 -.00000176  00000-0 -69618-5 0  9991,2 55634  70.0015   2.0618 0003196 271.6418  88.4375 14.98328341 30611,6950.198,96.107,574.284,569.842,0.0
